{
  "type": "FeatureCollection",
  "features": [
    {
      "type": "Feature",
      "properties": {
        "feature_type": "observed_slick_polygon",
        "spill_id": "UNKNOWN_SPILL",
        "observation_time": "2018-08-03T17:25:57+00:00",
        "area_km2": 1.4539,
        "perimeter_km": 8.0,
        "source": "Feature 1 Sentinel-1 SAR Detection"
      },
      "geometry": {
        "type": "Polygon",
        "coordinates": [
          [
            [
              4.02118,
              55.15008
            ],
            [
              4.12044,
              55.15008
            ],
            [
              4.0634,
              55.24126
            ],
            [
              4.06322,
              55.24144
            ],
            [
              4.02118,
              55.15008
            ]
          ]
        ]
      }
    },
    {
      "type": "Feature",
      "properties": {
        "feature_type": "observed_slick_centroid",
        "spill_id": "UNKNOWN_SPILL",
        "observation_time": "2018-08-03T17:25:57+00:00"
      },
      "geometry": {
        "type": "Point",
        "coordinates": [
          4.053477,
          55.241575
        ]
      }
    },
    {
      "type": "Feature",
      "properties": {
        "feature_type": "candidate_origin_centroid",
        "spill_id": "DEMO_SENTINEL1_OFFSHORE_SLICK_001",
        "candidate_id": "ORIGIN_1",
        "candidate_rank": 1,
        "evidence_score": 0.7794,
        "observation_time": "2018-08-03T17:25:57+00:00",
        "release_time_utc": "2018-08-03T14:25:57+00:00",
        "release_window_start": "2018-07-31T17:25:57+00:00",
        "release_window_end": "2018-08-03T14:25:57+00:00",
        "spread_radius_km": 2.908,
        "disclaimer": "The origin score is a normalized evidence/confidence metric and is not a calibrated probability. The candidate region is an estimated convergence zone, not a confirmed spill source."
      },
      "geometry": {
        "type": "Point",
        "coordinates": [
          4.001838,
          55.157128
        ]
      }
    },
    {
      "type": "Feature",
      "properties": {
        "feature_type": "forecast_predicted_centroid",
        "spill_id": "DEMO_SENTINEL1_OFFSHORE_SLICK_001",
        "horizon_hours": 6.0,
        "forecast_timestamp": "2018-08-03T23:25:57+00:00",
        "centroid": {
          "lat": 55.223297,
          "lon": 4.207973
        },
        "spread_radius_km": 2.733,
        "quality": "HIGH",
        "valid": true,
        "active_particles": 30,
        "total_particles": 30
      },
      "geometry": {
        "type": "Point",
        "coordinates": [
          4.207973,
          55.223297
        ]
      }
    },
    {
      "type": "Feature",
      "properties": {
        "feature_type": "forecast_uncertainty_zone",
        "spill_id": "DEMO_SENTINEL1_OFFSHORE_SLICK_001",
        "horizon_hours": 6.0,
        "forecast_timestamp": "2018-08-03T23:25:57+00:00",
        "semi_major_axis_km": 5.869,
        "semi_minor_axis_km": 3.213,
        "orientation_deg": 342.21,
        "spread_radius_km": 2.733,
        "quality": "HIGH"
      },
      "geometry": {
        "type": "Polygon",
        "coordinates": [
          [
            [
              4.179699,
              55.273553
            ],
            [
              4.171752,
              55.271257
            ],
            [
              4.164906,
              55.267503
            ],
            [
              4.159369,
              55.262406
            ],
            [
              4.155308,
              55.256121
            ],
            [
              4.152847,
              55.248838
            ],
            [
              4.152061,
              55.240779
            ],
            [
              4.152974,
              55.23219
            ],
            [
              4.155559,
              55.223329
            ],
            [
              4.159736,
              55.214468
            ],
            [
              4.165378,
              55.205876
            ],
            [
              4.172315,
              55.197812
            ],
            [
              4.180335,
              55.190523
            ],
            [
              4.189195,
              55.18423
            ],
            [
              4.198625,
              55.179124
            ],
            [
              4.20834,
              55.17536
            ],
            [
              4.218043,
              55.173052
            ],
            [
              4.227441,
              55.172272
            ],
            [
              4.236247,
              55.173041
            ],
            [
              4.244193,
              55.175338
            ],
            [
              4.25104,
              55.179092
            ],
            [
              4.256577,
              55.184189
            ],
            [
              4.260638,
              55.190474
            ],
            [
              4.263099,
              55.197757
            ],
            [
              4.263884,
              55.205815
            ],
            [
              4.262971,
              55.214405
            ],
            [
              4.260387,
              55.223265
            ],
            [
              4.25621,
              55.232126
            ],
            [
              4.250568,
              55.240719
            ],
            [
              4.243631,
              55.248782
            ],
            [
              4.235611,
              55.256071
            ],
            [
              4.226751,
              55.262365
            ],
            [
              4.21732,
              55.267471
            ],
            [
              4.207606,
              55.271235
            ],
            [
              4.197902,
              55.273542
            ],
            [
              4.188505,
              55.274323
            ],
            [
              4.179699,
              55.273553
            ]
          ]
        ]
      }
    },
    {
      "type": "Feature",
      "properties": {
        "feature_type": "forecast_predicted_centroid",
        "spill_id": "DEMO_SENTINEL1_OFFSHORE_SLICK_001",
        "horizon_hours": 12.0,
        "forecast_timestamp": "2018-08-04T05:25:57+00:00",
        "centroid": {
          "lat": 55.264652,
          "lon": 4.343822
        },
        "spread_radius_km": 2.778,
        "quality": "HIGH",
        "valid": true,
        "active_particles": 30,
        "total_particles": 30
      },
      "geometry": {
        "type": "Point",
        "coordinates": [
          4.343822,
          55.264652
        ]
      }
    },
    {
      "type": "Feature",
      "properties": {
        "feature_type": "forecast_uncertainty_zone",
        "spill_id": "DEMO_SENTINEL1_OFFSHORE_SLICK_001",
        "horizon_hours": 12.0,
        "forecast_timestamp": "2018-08-04T05:25:57+00:00",
        "semi_major_axis_km": 6.082,
        "semi_minor_axis_km": 3.044,
        "orientation_deg": 338.87,
        "spread_radius_km": 2.778,
        "quality": "HIGH"
      },
      "geometry": {
        "type": "Polygon",
        "coordinates": [
          [
            [
              4.309212,
              55.315669
            ],
            [
              4.301957,
              55.31318
            ],
            [
              4.295973,
              55.309217
            ],
            [
              4.291444,
              55.303899
            ],
            [
              4.288506,
              55.297389
            ],
            [
              4.287249,
              55.289885
            ],
            [
              4.28771,
              55.281613
            ],
            [
              4.289877,
              55.272827
            ],
            [
              4.293683,
              55.263791
            ],
            [
              4.299012,
              55.254783
            ],
            [
              4.305703,
              55.246073
            ],
            [
              4.313552,
              55.237929
            ],
            [
              4.32232,
              55.230596
            ],
            [
              4.331742,
              55.224298
            ],
            [
              4.341531,
              55.219227
            ],
            [
              4.35139,
              55.215535
            ],
            [
              4.361019,
              55.213336
            ],
            [
              4.370125,
              55.212696
            ],
            [
              4.378432,
              55.213635
            ],
            [
              4.385687,
              55.216124
            ],
            [
              4.39167,
              55.220087
            ],
            [
              4.3962,
              55.225404
            ],
            [
              4.399138,
              55.231914
            ],
            [
              4.400395,
              55.239419
            ],
            [
              4.399933,
              55.24769
            ],
            [
              4.397767,
              55.256477
            ],
            [
              4.393961,
              55.265512
            ],
            [
              4.388632,
              55.274521
            ],
            [
              4.381941,
              55.28323
            ],
            [
              4.374092,
              55.291375
            ],
            [
              4.365323,
              55.298707
            ],
            [
              4.355901,
              55.305005
            ],
            [
              4.346112,
              55.310077
            ],
            [
              4.336254,
              55.313768
            ],
            [
              4.326625,
              55.315968
            ],
            [
              4.317519,
              55.316608
            ],
            [
              4.309212,
              55.315669
            ]
          ]
        ]
      }
    },
    {
      "type": "Feature",
      "properties": {
        "feature_type": "forecast_predicted_centroid",
        "spill_id": "DEMO_SENTINEL1_OFFSHORE_SLICK_001",
        "horizon_hours": 24.0,
        "forecast_timestamp": "2018-08-04T17:25:57+00:00",
        "centroid": {
          "lat": 55.347163,
          "lon": 4.617928
        },
        "spread_radius_km": 3.025,
        "quality": "HIGH",
        "valid": true,
        "active_particles": 30,
        "total_particles": 30
      },
      "geometry": {
        "type": "Point",
        "coordinates": [
          4.617928,
          55.347163
        ]
      }
    },
    {
      "type": "Feature",
      "properties": {
        "feature_type": "forecast_uncertainty_zone",
        "spill_id": "DEMO_SENTINEL1_OFFSHORE_SLICK_001",
        "horizon_hours": 24.0,
        "forecast_timestamp": "2018-08-04T17:25:57+00:00",
        "semi_major_axis_km": 6.468,
        "semi_minor_axis_km": 3.605,
        "orientation_deg": 342.69,
        "spread_radius_km": 3.025,
        "quality": "HIGH"
      },
      "geometry": {
        "type": "Polygon",
        "coordinates": [
          [
            [
              4.587491,
              55.402698
            ],
            [
              4.578501,
              55.40018
            ],
            [
              4.57071,
              55.39605
            ],
            [
              4.564353,
              55.390435
            ],
            [
              4.559624,
              55.383506
            ],
            [
              4.556666,
              55.375472
            ],
            [
              4.55557,
              55.366578
            ],
            [
              4.556369,
              55.357094
            ],
            [
              4.559038,
              55.347308
            ],
            [
              4.563496,
              55.337518
            ],
            [
              4.569609,
              55.328021
            ],
            [
              4.577189,
              55.319105
            ],
            [
              4.586008,
              55.311042
            ],
            [
              4.595796,
              55.304077
            ],
            [
              4.606256,
              55.29842
            ],
            [
              4.617072,
              55.294245
            ],
            [
              4.627913,
              55.291678
            ],
            [
              4.638451,
              55.290796
            ],
            [
              4.648365,
              55.291627
            ],
            [
              4.657355,
              55.294146
            ],
            [
              4.665146,
              55.298275
            ],
            [
              4.671503,
              55.30389
            ],
            [
              4.676232,
              55.31082
            ],
            [
              4.67919,
              55.318854
            ],
            [
              4.680286,
              55.327748
            ],
            [
              4.679487,
              55.337232
            ],
            [
              4.676818,
              55.347018
            ],
            [
              4.672359,
              55.356808
            ],
            [
              4.666247,
              55.366305
            ],
            [
              4.658667,
              55.37522
            ],
            [
              4.649848,
              55.383283
            ],
            [
              4.64006,
              55.390249
            ],
            [
              4.629599,
              55.395905
            ],
            [
              4.618784,
              55.40008
            ],
            [
              4.607943,
              55.402648
            ],
            [
              4.597405,
              55.403529
            ],
            [
              4.587491,
              55.402698
            ]
          ]
        ]
      }
    },
    {
      "type": "Feature",
      "properties": {
        "feature_type": "forecast_predicted_centroid",
        "spill_id": "DEMO_SENTINEL1_OFFSHORE_SLICK_001",
        "horizon_hours": 48.0,
        "forecast_timestamp": "2018-08-05T17:25:57+00:00",
        "centroid": {
          "lat": 55.506924,
          "lon": 5.167466
        },
        "spread_radius_km": 3.451,
        "quality": "HIGH",
        "valid": true,
        "active_particles": 30,
        "total_particles": 30
      },
      "geometry": {
        "type": "Point",
        "coordinates": [
          5.167466,
          55.506924
        ]
      }
    },
    {
      "type": "Feature",
      "properties": {
        "feature_type": "forecast_uncertainty_zone",
        "spill_id": "DEMO_SENTINEL1_OFFSHORE_SLICK_001",
        "horizon_hours": 48.0,
        "forecast_timestamp": "2018-08-05T17:25:57+00:00",
        "semi_major_axis_km": 6.626,
        "semi_minor_axis_km": 5.24,
        "orientation_deg": 354.79,
        "spread_radius_km": 3.451,
        "quality": "HIGH"
      },
      "geometry": {
        "type": "Polygon",
        "coordinates": [
          [
            [
              5.157906,
              55.566266
            ],
            [
              5.143661,
              55.564621
            ],
            [
              5.130138,
              55.561223
            ],
            [
              5.11775,
              55.556175
            ],
            [
              5.106872,
              55.549631
            ],
            [
              5.097836,
              55.541788
            ],
            [
              5.090915,
              55.532887
            ],
            [
              5.08632,
              55.523197
            ],
            [
              5.084191,
              55.513012
            ],
            [
              5.084592,
              55.502643
            ],
            [
              5.087511,
              55.492403
            ],
            [
              5.09286,
              55.482605
            ],
            [
              5.100475,
              55.473545
            ],
            [
              5.110126,
              55.4655
            ],
            [
              5.121519,
              55.458714
            ],
            [
              5.134308,
              55.453392
            ],
            [
              5.148105,
              55.449697
            ],
            [
              5.16249,
              55.44774
            ],
            [
              5.177026,
              55.447582
            ],
            [
              5.191272,
              55.449227
            ],
            [
              5.204795,
              55.452626
            ],
            [
              5.217183,
              55.457674
            ],
            [
              5.228061,
              55.464218
            ],
            [
              5.237097,
              55.47206
            ],
            [
              5.244018,
              55.480961
            ],
            [
              5.248613,
              55.490652
            ],
            [
              5.250742,
              55.500836
            ],
            [
              5.250341,
              55.511206
            ],
            [
              5.247422,
              55.521446
            ],
            [
              5.242073,
              55.531244
            ],
            [
              5.234458,
              55.540303
            ],
            [
              5.224807,
              55.548348
            ],
            [
              5.213414,
              55.555135
            ],
            [
              5.200625,
              55.560457
            ],
            [
              5.186828,
              55.564152
            ],
            [
              5.172443,
              55.566108
            ],
            [
              5.157906,
              55.566266
            ]
          ]
        ]
      }
    }
  ]
}